STARLINK-11725 [DTC]    
1 64125U 25111C   25288.56504602  .00292606  00000+0  21996-2 0  9994
2 64125  42.9996 128.7167 0001565 265.6813  94.3876 15.70893614 23814
STARLINK-11717 [DTC]    
1 64126U 25111D   25288.82468316  .00220617  00000+0  16707-2 0  9992
2 64126  42.9999 127.2250 0001552 264.5227  95.5464 15.70937370 23801
STARLINK-11721 [DTC]    
1 64127U 25111E   25288.85110244  .00316490  00000+0  23696-2 0  9990
2 64127  42.9999 126.5420 0001764 266.2436  93.8230 15.70916810 23863
STARLINK-11722 [DTC]    
1 64128U 25111F   25288.61800742  .00149977  00000+0  11495-2 0  9992
2 64128  42.9991 128.2440 0001858 214.5587 145.5160 15.70877343 23778
STARLINK-11679 [DTC]    
1 64129U 25111G   25288.85641278  .00156926  00000+0  12002-2 0  9993
2 64129  42.9998 126.5835 0001575 269.0859  90.9828 15.70904494 23860
STARLINK-11735 [DTC]    
1 64130U 25111H   25288.83336806  .00045732  00000+0  35846-3 0  9995
2 64130  43.0003 127.0255 0001886 273.4195 195.9269 15.70803785  6014
STARLINK-11720 [DTC]    
1 64131U 25111J   25288.79813935  .00150427  00000+0  11518-2 0  9991
2 64131  42.9998 127.0093 0001827 276.2990  83.7669 15.70900177 23802
STARLINK-11718 [DTC]    
1 64132U 25111K   25288.83622419  .00225624  00000+0  17106-2 0  9993
2 64132  42.9995 127.3136 0001843 266.3227  93.7430 15.70894494 23904
STARLINK-11716 [DTC]    
1 64133U 25111L   25288.82999161  .00264258  00000+0  19890-2 0  9992
2 64133  42.9994 127.2629 0001641 261.9831  98.0851 15.70949154 23907
STARLINK-11714 [DTC]    
1 64134U 25111M   25288.84579395  .00288443  00000+0  21655-2 0  9992
2 64134  42.9995 126.4980 0001994 272.3044  87.7595 15.70936614 23865
STARLINK-11712 [DTC]    
1 64135U 25111N   25288.84061360  .00155442  00000+0  11890-2 0  9993
2 64135  42.9996 127.3529 0001869 276.0764  83.9890 15.70906609 23853
STARLINK-34254          
1 64136U 25111P   25288.11754438  .00014040  00000+0  51893-3 0  9995
2 64136  42.9985 179.6682 0001650 280.6166  79.4499 15.27567962 23208
STARLINK-34230          
1 64137U 25111Q   25288.73814108  .00017052  00000+0  62753-3 0  9998
2 64137  43.0004 176.5906 0000603 271.2880  88.7903 15.27591064 23296
STARLINK-34129          
1 64138U 25111R   25288.74585307  .00030197  00000+0  11014-2 0  9994
2 64138  43.0021 176.6495 0001195 286.2555  73.8166 15.27608670 23346
STARLINK-34212          
1 64139U 25111S   25288.71629900  .00028725  00000+0  10487-2 0  9997
2 64139  42.9992 176.4215 0001025 262.3290  97.7445 15.27600545 23295
STARLINK-34149          
1 64140U 25111T   25288.72657580  .00027591  00000+0  10077-2 0  9990
2 64140  43.0014 176.5030 0002096 271.4908  88.5703 15.27602182 23290
STARLINK-34054          
1 64141U 25111U   25288.72400704  .00044357  00000+0  16101-2 0  9998
2 64141  43.0019 176.4824 0003216 288.3239  71.7263 15.27610985 23290
STARLINK-34195          
1 64142U 25111V   25288.38551484  .00026725  00000+0  97684-3 0  9998
2 64142  42.9985 178.2376 0000493 281.7555  78.3241 15.27591597 23246
STARLINK-34133          
1 64143U 25111W   25288.70858866  .00032194  00000+0  11735-2 0  9998
2 64143  42.9976 176.3617 0001109 289.7012  70.3719 15.27602453 23296
STARLINK-34181          
1 64144U 25111X   25288.73041301  .00025258  00000+0  92313-3 0  9995
2 64144  43.0005 176.5317 0000284  77.0381 283.0502 15.27619504 23299
STARLINK-34186          
1 64145U 25111Y   25288.73942728  .00027844  00000+0  10169-2 0  9990
2 64145  42.9997 176.5985 0000712 299.7033  60.3747 15.27599634 23290
STARLINK-34314          
1 64146U 25112A   25288.85614368  .00006471  00000+0  45222-3 0  9993
2 64146  97.6034 338.7266 0001089  93.2296 266.9055 15.05657277 21513
STARLINK-33926          
1 64147U 25112B   25288.10018600  .00005608  00000+0  39260-3 0  9995
2 64147  97.6052 338.0401 0000601 118.0610 242.0678 15.05647924 21405
STARLINK-34213          
1 64148U 25112C   25288.86445028  .00007411  00000+0  51717-3 0  9992
2 64148  97.6043 338.7157 0001317  94.2673 265.8704 15.05658851 21516
STARLINK-33924          
1 64149U 25112D   25288.60694025  .00009537  00000+0  66404-3 0  9998
2 64149  97.6046 338.4448 0000815 135.1980 224.9313 15.05663594 21475
STARLINK-34209          
1 64150U 25112E   25288.15833615  .00008301  00000+0  57875-3 0  9990
2 64150  97.6061 338.1155 0000219 126.1257 233.9990 15.05653927 21415
STARLINK-34338          
1 64151U 25112F   25288.61525575  .00016380  00000+0  11360-2 0  9999
2 64151  97.6052 338.5858 0000721 350.1830   9.9383 15.05675151 21481
STARLINK-34348          
1 64152U 25112G   25288.58201316  .00009159  00000+0  63823-3 0  9998
2 64152  97.6030 338.4780 0001173 102.8421 257.2936 15.05643845 21477
STARLINK-34345          
1 64153U 25112H   25288.10849249  .00003863  00000+0  27178-3 0  9999
2 64153  97.6024 338.0294 0001200 104.2228 255.9132 15.05647861 21407
STARLINK-33945          
1 64154U 25112J   25288.58501179  .00037249  00000+0  95146-3 0  9994
2 64154  97.6051 342.7730 0001110  39.2519 320.8807 15.39381583 21757
STARLINK-34346          
1 64155U 25112K   25288.16109769  .00034827  00000+0  24020-2 0  9999
2 64155  97.6064 338.1208 0000698  46.1028 314.0256 15.05713104 21410
STARLINK-34277          
1 64156U 25112L   25288.85891453  .00008007  00000+0  55839-3 0  9998
2 64156  97.6037 338.7323 0001149 103.3606 256.7749 15.05659299 21519
STARLINK-34343          
1 64157U 25112M   25288.57646973  .00006677  00000+0  46645-3 0  9999
2 64157  97.6037 338.4941 0000974  91.2582 268.8756 15.05654650 21479
STARLINK-34166          
1 64158U 25112N   25288.60969075  .00008128  00000+0  56675-3 0  9992
2 64158  97.6054 338.4475 0000442 106.8039 253.3236 15.05657599 21478
STARLINK-34344          
1 64159U 25112P   25288.86722044  .00008040  00000+0  56060-3 0  9995
2 64159  97.6041 338.7205 0001618  90.6328 269.5084 15.05660309 21514
STARLINK-34339          
1 64160U 25112Q   25288.38540146  .00006019  00000+0  42095-3 0  9992
2 64160  97.6032 338.2859 0000892  91.9357 268.1972 15.05652060 21443
STARLINK-34341          
1 64161U 25112R   25288.56816167  .00007318  00000+0  51072-3 0  9990
2 64161  97.6047 338.5050 0000199 115.1152 245.0095 15.05658572 21475
STARLINK-34317          
1 64162U 25112S   25288.41863553  .00006128  00000+0  42847-3 0  9994
2 64162  97.6063 338.3944 0001457  98.0601 262.0791 15.05653680 21455
STARLINK-34340          
1 64163U 25112T   25288.59585213  .00009538  00000+0  66434-3 0  9994
2 64163  97.6037 338.4650 0000663 106.9850 253.1449 15.05650525 21473
STARLINK-34263          
1 64164U 25112U   25288.85337668  .00007096  00000+0  49542-3 0  9991
2 64164  97.6038 338.7402 0000932 142.6227 217.5064 15.05656853 21519
STARLINK-33793          
1 64165U 25112V   25288.37987424  .00008239  00000+0  57472-3 0  9991
2 64165  97.6037 338.2944 0001015 100.9830 259.1511 15.05638173 21441
STARLINK-34313          
1 64166U 25112W   25288.57093256  .00006542  00000+0  45711-3 0  9993
2 64166  97.6048 338.5022 0001187  93.3183 266.8180 15.05656234 21478
STARLINK-34309          
1 64167U 25112X   25288.56262547  .00007541  00000+0  52617-3 0  9997
2 64167  97.6046 338.5135 0000765  84.8283 275.3031 15.05656149 21474
STARLINK-34303          
1 64168U 25112Y   25288.42140367  .00002785  00000+0  19710-3 0  9990
2 64168  97.6063 338.3935 0001439  83.4958 276.6433 15.05662544 21457
STARLINK-34175          
1 64169U 25112Z   25288.40478194  .00006683  00000+0  46696-3 0  9995
2 64169  97.6045 338.2584 0001283  93.6198 266.5176 15.05650281 21449
STARLINK-34177          
1 64170U 25113A   25288.73626152  .00038218  00000+0  12956-2 0  9993
2 64170  53.1595  44.3200 0001199  95.4872 264.6265 15.30206511 22870
STARLINK-34228          
1 64171U 25113B   25288.58663542  .00088141  00000+0  29490-2 0  9992
2 64171  53.1654  44.8052 0001102 106.4705 253.6417 15.30243238 22851
STARLINK-34233          
1 64172U 25113C   25288.74998227  .00035085  00000+0  11894-2 0  9990
2 64172  53.1579  44.4056 0000868  74.0145 286.0951 15.30245756 22876
STARLINK-34172          
1 64173U 25113D   25288.71832102  .00048295  00000+0  16307-2 0  9998
2 64173  53.1629  44.2029 0000572  51.6841 308.4211 15.30229127 22835
STARLINK-34202          
1 64174U 25113E   25288.61196523  .00028868  00000+0  98286-3 0  9999
2 64174  53.1590  44.9629 0000846  78.1658 281.9437 15.30204539 22857
STARLINK-34231          
1 64175U 25113F   25288.69310855  .00047704  00000+0  16118-2 0  9997
2 64175  53.1593  44.7553 0001104  80.5361 279.5764 15.30213770 22865
STARLINK-34191          
1 64176U 25113G   25288.70460199  .00031613  00000+0  10743-2 0  9997
2 64176  53.1618  44.1166 0000828 102.8427 257.2666 15.30217669 22877
STARLINK-34164          
1 64177U 25113H   25288.76580919  .00031792  00000+0  10798-2 0  9995
2 64177  53.1607  44.5027 0000911  62.4491 297.6602 15.30234831 22879
STARLINK-34227          
1 64178U 25113J   25288.74576137  .00024204  00000+0  82654-3 0  9992
2 64178  53.1594  44.3756 0001209  78.8172 281.2964 15.30204638 22872
STARLINK-34194          
1 64179U 25113K   25288.51393641  .00053997  00000+0  18195-2 0  9994
2 64179  53.1606  45.0606 0000990  86.0274 274.0840 15.30245311 22842
STARLINK-34000          
1 64180U 25113L   25288.73098625  .00040738  00000+0  13796-2 0  9995
2 64180  53.1599  44.2798 0001228  92.7189 267.3952 15.30210842 22831
STARLINK-33917          
1 64181U 25113M   25288.62673909  .00020145  00000+0  69039-3 0  9990
2 64181  53.1573  45.0508 0001157  66.9287 293.1836 15.30201562 22854
STARLINK-34131          
1 64182U 25113N   25288.67833456  .00032277  00000+0  10968-2 0  9996
2 64182  53.1593  44.6602 0001098  81.2490 278.8636 15.30211181 22820
STARLINK-34188          
1 64183U 25113P   25288.75947691  .00014114  00000+0  48754-3 0  9998
2 64183  53.1597  44.4633 0001158  93.2534 266.8599 15.30213711 22877
